ASTRO-H (HITOMI)        
1 41337U 16012A   26065.19672454  .00004586  00000+0  26966-3 0  9999
2 41337  31.0009  19.0871 0009979 296.2634  63.6979 15.09975986551702
HXMT (HUIYAN)           
1 42758U 17034A   26065.28898038  .00006983  00000+0  34990-3 0  9999
2 42758  43.0152  35.5784 0032559 215.2219 144.6477 15.17406206482022
SAOCOM 1A               
1 43641U 18076A   26065.31746003  .00000073  00000+0  15748-4 0  9991
2 43641  97.8884 253.5374 0001283  82.0482 278.0876 14.82163342400861
H-2A R/B                
1 43682U 18084L   26065.16211005  .00020120  00000+0  48168-3 0  9993
2 43682  98.8728 281.7968 0025655  37.3103 322.9914 15.41163517405236
SAOCOM 1B               
1 46265U 20059A   26065.28116590  .00001042  00000+0  13738-3 0  9991
2 46265  97.8883 252.5997 0001484  82.6199 277.5183 14.82170251298248
CSS (TIANHE)            
1 48274U 21035A   26064.93979305  .00018582  00000+0  22289-3 0  9998
2 48274  41.4658 230.9734 0006880 250.1024 109.9073 15.60447182277024
COSMOS 2550             
1 48865U 21056A   26065.25695103 -.00000199  00000+0 -22056-6 0  9996
2 48865  67.1451  51.3149 0008333 269.8481  90.1719 15.33824163262930
CZ-2C R/B               
1 52794U 22058K   26065.10454595  .00036957  00000+0  54511-3 0  9994
2 52794  50.1901 336.7280 0042244 185.5572 174.4935 15.53925606209571
CZ-2C R/B               
1 54039U 22132E   26065.10371052  .00045399  00000+0  52473-3 0  9992
2 54039  97.2964  68.3129 0020817 103.1705 257.1877 15.61488036189810
GSLV R/B                
1 54149U 22138AN  26065.24429797  .00004123  00000+0  35660-3 0  9994
2 54149  87.3886 167.5155 0022563 158.6361 201.5818 14.96746333183411
XRISM                   
1 57800U 23137A   26065.07455433  .00006032  00000+0  34222-3 0  9992
2 57800  31.0027 307.0459 0008061   1.6884 358.3781 15.11449805137245
ACS3                    
1 59588U 24077B   26065.25759540  .00029605  00000+0  23871-1 0  9994
2 59588  97.2098   7.1413 0057085  85.7289 275.0395 13.89439378 93729
SZ-21 MODULE            
1 66515U 25246C   26064.80716873  .00041310  00000+0  36032-3 0  9995
2 66515  41.4734 227.2544 0001427 292.1430  67.9260 15.68194204 17467
